*******************************************************************************
 Revised: Jan 08, 2014             Puck / (Uranus)                          715

 SATELLITE PHYSICAL PROPERTIES:
  Radius (km)           = 77 +- 3           Density (g cm^-3)   =
  Mass (10^20 kg )      =                   Geometric Albedo    =   0.07 
                                            V(1,0)              =  +7.5

 SATELLITE ORBITAL DATA:
  Semi-major axis, a (km) =  86.004 (10^3)  Orbital period      =  0.761832 d
  Eccentricity, e         =   0.000         Rotational period   = 
  Inclination, i  (deg)   =   0.3
*******************************************************************************
 
 
*******************************************************************************
Ephemeris / WWW_USER Sun Nov 12 08:46:10 2017 Pasadena, USA      / Horizons    
*******************************************************************************
Target body name: Puck (715)                      {source: ura111}
Center body name: Solar System Barycenter (0)     {source: DE431mx}
Center-site name: BODY CENTER
*******************************************************************************
Start time      : A.D. 2017-Jul-10 00:00:00.0000 TDB
Stop  time      : A.D. 2020-Aug-13 00:00:00.0000 TDB
Step-size       : 1440 minutes
*******************************************************************************
Center geodetic : 0.00000000,0.00000000,0.0000000 {E-lon(deg),Lat(deg),Alt(km)}
Center cylindric: 0.00000000,0.00000000,0.0000000 {E-lon(deg),Dxy(km),Dz(km)}
Center radii    : (undefined)                                                  
Output units    : KM-S                                                         
Output type     : GEOMETRIC cartesian states
Output format   : 3 (position, velocity, LT, range, range-rate)
Reference frame : ICRF/J2000.0                                                 
Coordinate systm: Ecliptic and Mean Equinox of Reference Epoch                 
*******************************************************************************
            JDTDB,            Calendar Date (TDB),                      X,                      Y,                      Z,                     VX,                     VY,                     VZ,                     LT,                     RG,                     RR,
**************************************************************************************************************************************************************************************************************************************************************************
$$SOE
2458106.500000000, A.D. 2017-Dec-19 00:00:00.0000,  2.654979982072345E+09,  1.349329040482334E+09, -2.938618635324943E+07, -3.651828156654006E+00,  4.787401792955428E+00, -8.074677982758466E+00,  9.934651569483143E+03,  2.978333613388909E+09, -1.006759746715193E+00,
2458107.500000000, A.D. 2017-Dec-20 00:00:00.0000,  2.654588060380854E+09,  1.349842959167910E+09, -2.945529891145408E+07, -1.032958946262166E+01,  7.792036798935882E+00,  3.450257867217317E+00,  9.934265333273324E+03,  2.978217822686199E+09, -5.709591519049417E+00,
2458108.500000000, A.D. 2017-Dec-21 00:00:00.0000,  2.654298751339532E+09,  1.350362609049899E+09, -2.930985285977173E+07,  2.893450209801736E+00,  5.155019132406345E+00,  5.601653356561772E+00,  9.934186207100029E+03,  2.978194101256215E+09,  4.861013834699184E+00,
2458109.500000000, A.D. 2017-Dec-22 00:00:00.0000,  2.654162592348663E+09,  1.350825388035091E+09, -2.933739957836032E+07, -5.701779617827922E-01,  4.170610805739905E+00, -7.574641685121112E+00,  9.934482377678863E+03,  2.978282890962030E+09,  1.458102669098039E+00,
2458110.500000000, A.D. 2017-Dec-23 00:00:00.0000,  2.653806110632047E+09,  1.351325896975740E+09, -2.944686276800579E+07, -1.113970064431561E+01,  7.560306519539679E+00,  3.795129568385982E-01,  9.934183723807915E+03,  2.978193356783968E+09, -6.499693202737497E+00,
2458111.500000000, A.D. 2017-Dec-24 00:00:00.0000,  2.653465173274652E+09,  1.351854187245863E+09, -2.932055567859232E+07,  4.236301806985470E-01,  5.944228328964263E+00,  7.454775750838705E+00,  9.933965985829798E+03,  2.978128080580308E+09,  3.002301941987436E+00,
2458112.500000000, A.D. 2017-Dec-25 00:00:00.0000,  2.653332339530936E+09,  1.352323319657743E+09, -2.929312125479656E+07,  2.125021111395307E+00,  3.792154673361219E+00, -5.924888241411841E+00,  9.934280762820112E+03,  2.978222448347956E+09,  3.673387429247268E+00,
2458113.500000000, A.D. 2017-Dec-26 00:00:00.0000,  2.653024091407633E+09,  1.352809894131327E+09, -2.942564982297105E+07, -1.074769765462853E+01,  7.056801688591230E+00, -2.739067143690556E+00,  9.934106239135530E+03,  2.978170127463576E+09, -6.341743426564907E+00,
2458114.500000000, A.D. 2017-Dec-27 00:00:00.0000,  2.652641979113409E+09,  1.353342100936936E+09, -2.933663857769448E+07, -2.581678209938723E+00,  6.703705017102937E+00,  8.196055504050509E+00,  9.933774503996468E+03,  2.978070675770832E+09,  6.661002150539124E-01,
2458115.500000000, A.D. 2017-Dec-28 00:00:00.0000,  2.652491627296306E+09,  1.353821749347367E+09, -2.925751987506247E+07,  4.027540199293153E+00,  3.708603772292651E+00, -3.373735697575620E+00,  9.934052397022333E+03,  2.978153986004117E+09,  5.306143442332080E+00,
2458116.500000000, A.D. 2017-Dec-29 00:00:00.0000,  2.652237157479958E+09,  1.354295925058954E+09, -2.939237116112638E+07, -9.211319441218517E+00,  6.356723622450891E+00, -5.436685344273167E+00,  9.934019993911810E+03,  2.978144271795966E+09, -5.258953324593642E+00,
2458117.500000000, A.D. 2017-Dec-30 00:00:00.0000,  2.651830492668227E+09,  1.354826706736769E+09, -2.935323029748476E+07, -5.671238196865376E+00,  7.318967685898780E+00,  7.713636580157238E+00,  9.933616029595278E+03,  2.978023166340569E+09, -1.796376101592074E+00,
2458118.500000000, A.D. 2017-Dec-31 00:00:00.0000,  2.651644373887006E+09,  1.355319419936068E+09, -2.923353824980277E+07,  4.850847943256060E+00,  3.931987795515715E+00, -3.055181199354065E-01,  9.933807134594075E+03,  2.978080458177895E+09,  6.111572439621532E+00,
2458119.500000000, A.D. 2018-Jan-01 00:00:00.0000,  2.651441071268151E+09,  1.355784576914407E+09, -2.934963314052981E+07, -6.762838060352562E+00,  5.565304097655217E+00, -7.308101397798978E+00,  9.933913405140589E+03,  2.978112317286247E+09, -3.415392688884234E+00,
2458120.500000000, A.D. 2018-Jan-02 00:00:00.0000,  2.651030101183900E+09,  1.356308788315049E+09, -2.936545701543659E+07, -8.380985067755958E+00,  7.697373202033995E+00,  6.080553235949228E+00,  9.933489726507760E+03,  2.977985301627509E+09, -4.015059103710209E+00,
2458121.500000000, A.D. 2018-Jan-03 00:00:00.0000,  2.650795253599921E+09,  1.356815138312526E+09, -2.922238904646569E+07,  4.468925703749011E+00,  4.428655398911814E+00,  2.818396689489943E+00,  9.933557093215377E+03,  2.978005497658373E+09,  5.967992154893226E+00,
2458122.500000000, A.D. 2018-Jan-04 00:00:00.0000,  2.650632759504133E+09,  1.357275998974066E+09, -2.930140309238338E+07, -3.769543007717591E+00,  4.801251343917331E+00, -8.070285291259552E+00,  9.933777744063322E+03,  2.978071647118438E+09, -1.087475612354362E+00,
2458123.500000000, A.D. 2018-Jan-05 00:00:00.0000,  2.650238378321602E+09,  1.357789458661085E+09, -2.936898146487254E+07, -1.030375562534231E+01,  7.781884866129504E+00,  3.542800913765450E+00,  9.933389900657383E+03,  2.977955374590453E+09, -5.656664957939881E+00,
2458124.500000000, A.D. 2018-Jan-06 00:00:00.0000,  2.649949201514212E+09,  1.358307925065890E+09, -2.922325582891166E+07,  2.940415246592770E+00,  5.122898730565342E+00,  5.526691585507262E+00,  9.933315399284413E+03,  2.977933039640726E+09,  4.899007755908082E+00,
2458125.500000000, A.D. 2018-Jan-07 00:00:00.0000,  2.649810988667323E+09,  1.358769821305073E+09, -2.925249919296217E+07, -6.828409346062707E-01,  4.179300884744753E+00, -7.608990572905800E+00,  9.933608991198395E+03,  2.978021056282267E+09,  1.374030074862755E+00,
2458126.500000000, A.D. 2018-Jan-08 00:00:00.0000,  2.649451555800970E+09,  1.359269935650949E+09, -2.936089055241311E+07, -1.115143735626585E+01,  7.559683830032574E+00,  4.811582684669857E-01,  9.933307097969209E+03,  2.977930550969036E+09, -6.475526881837296E+00,
2458127.500000000, A.D. 2018-Jan-09 00:00:00.0000,  2.649110534170592E+09,  1.359797157631267E+09, -2.923365902812779E+07,  4.944563407904621E-01,  5.909943921393398E+00,  7.411890996279182E+00,  9.933093809386659E+03,  2.977866608660610E+09,  3.065791371062721E+00,
2458128.500000000, A.D. 2018-Jan-10 00:00:00.0000,  2.648976338171965E+09,  1.360265243130115E+09, -2.920796525766939E+07,  2.031498658087434E+00,  3.792898173337736E+00, -5.993517695683193E+00,  9.933407858288012E+03,  2.977960758152678E+09,  3.598367728491768E+00,
2458129.500000000, A.D. 2018-Jan-11 00:00:00.0000,  2.648664816319067E+09,  1.360751427602149E+09, -2.934007350841755E+07, -1.079788740386823E+01,  7.064367666402664E+00, -2.643270952098481E+00,  9.933228818292195E+03,  2.977907083312252E+09, -6.349957126589335E+00,
2458130.500000000, A.D. 2018-Jan-12 00:00:00.0000,  2.648282157484491E+09,  1.361282724217240E+09, -2.924962182215464E+07, -2.500970998276451E+00,  6.671086170532956E+00,  8.191407694963107E+00,  9.932900606271902E+03,  2.977808687823944E+09,  7.449645493987994E-01,
2458131.500000000, A.D. 2018-Jan-13 00:00:00.0000,  2.648131065990568E+09,  1.361761206959276E+09, -2.917200672609949E+07,  3.964778527422757E+00,  3.699937205699073E+00, -3.465533526858470E+00,  9.933179608974351E+03,  2.977892330729899E+09,  5.251627316783719E+00,
2458132.500000000, A.D. 2018-Jan-14 00:00:00.0000,  2.647873261470322E+09,  1.362234937783615E+09, -2.930710461238968E+07, -9.295471149931721E+00,  6.369947659571788E+00, -5.361225044213773E+00,  9.933142088580453E+03,  2.977881082398787E+09, -5.298647540693487E+00,
